ADRAS-J                 
1 58992U 24034A   24165.69511808  .00003613  00000+0  33820-3 0  9993
2 58992  98.2120 138.5541 0045889  61.7673 298.8167 14.93970243 17346
